ORBCOMM FM24            
1 25478U 98053D   25330.42389836  .00001230  00000+0  44429-3 0  9998
2 25478  45.0072 219.6087 0003190 337.0576  23.0130 14.38593039420801
ORBCOMM FM25            
1 25479U 98053E   25330.39858657  .00001206  00000+0  43680-3 0  9998
2 25479  45.0063 218.0245 0005536 343.0864  16.9800 14.38561956421094
ORBCOMM FM26            
1 25480U 98053F   25330.38076523  .00001049  00000+0  39381-3 0  9991
2 25480  45.0061 215.7734 0007334 356.7233   3.3566 14.37545030420980
ORBCOMM FM27            
1 25481U 98053G   25330.38260338  .00001240  00000+0  44730-3 0  9998
2 25481  45.0045 218.2410 0001875 352.6879   7.3942 14.38595384421023
ORBCOMM FM28            
1 25482U 98053H   25329.84608633  .00001034  00000+0  37983-3 0  9995
2 25482  45.0035 158.0808 0004692  38.6982 321.4202 14.38723735421630
ORBCOMM FM30            
1 25980U 99065A   25330.28270878  .00001162  00000+0  42981-3 0  9994
2 25980  45.0327  42.2518 0005211 117.7460 242.3918 14.37708105357778
ORBCOMM FM31            
1 25981U 99065B   25330.26349715  .00001206  00000+0  44500-3 0  9998
2 25981  45.0241  35.7991 0003679 159.3866 200.7131 14.37635915357328
ORBCOMM FM32            
1 25982U 99065C   25330.27801269  .00001299  00000+0  48449-3 0  9995
2 25982  45.0161  53.3921 0005971 140.7313 219.3969 14.36690869357904
