<?xml version="1.0" encoding="UTF-8"?>
<ndm xmlns:xsi="http://www.w3.org/2001/XMLSchema-instance" xsi:noNamespaceSchemaLocation="https://sanaregistry.org/r/ndmxml_unqualified/ndmxml-2.0.0-master-2.0.xsd">
<omm id="CCSDS_OMM_VERS" version="2.0">
<header><CREATION_DATE/><ORIGINATOR/></header><body><segment><metadata><OBJECT_NAME>ORBCOMM FM24</OBJECT_NAME><OBJECT_ID>1998-053D</OBJECT_ID><CENTER_NAME>EARTH</CENTER_NAME><REF_FRAME>TEME</REF_FRAME><TIME_SYSTEM>UTC</TIME_SYSTEM><MEAN_ELEMENT_THEORY>SGP4</MEAN_ELEMENT_THEORY></metadata><data><meanElements><EPOCH>2025-11-26T10:10:24.818304</EPOCH><MEAN_MOTION>14.38593039</MEAN_MOTION><ECCENTRICITY>.000319</ECCENTRICITY><INCLINATION>45.0072</INCLINATION><RA_OF_ASC_NODE>219.6087</RA_OF_ASC_NODE><ARG_OF_PERICENTER>337.0576</ARG_OF_PERICENTER><MEAN_ANOMALY>23.0130</MEAN_ANOMALY></meanElements><tleParameters><EPHEMERIS_TYPE>0</EPHEMERIS_TYPE><CLASSIFICATION_TYPE>U</CLASSIFICATION_TYPE><NORAD_CAT_ID>25478</NORAD_CAT_ID><ELEMENT_SET_NO>999</ELEMENT_SET_NO><REV_AT_EPOCH>42080</REV_AT_EPOCH><BSTAR>.44429E-3</BSTAR><MEAN_MOTION_DOT>.123E-4</MEAN_MOTION_DOT><MEAN_MOTION_DDOT>0</MEAN_MOTION_DDOT></tleParameters></data></segment></body></omm>
<omm id="CCSDS_OMM_VERS" version="2.0">
<header><CREATION_DATE/><ORIGINATOR/></header><body><segment><metadata><OBJECT_NAME>ORBCOMM FM25</OBJECT_NAME><OBJECT_ID>1998-053E</OBJECT_ID><CENTER_NAME>EARTH</CENTER_NAME><REF_FRAME>TEME</REF_FRAME><TIME_SYSTEM>UTC</TIME_SYSTEM><MEAN_ELEMENT_THEORY>SGP4</MEAN_ELEMENT_THEORY></metadata><data><meanElements><EPOCH>2025-11-26T09:33:57.879648</EPOCH><MEAN_MOTION>14.38561956</MEAN_MOTION><ECCENTRICITY>.0005536</ECCENTRICITY><INCLINATION>45.0063</INCLINATION><RA_OF_ASC_NODE>218.0245</RA_OF_ASC_NODE><ARG_OF_PERICENTER>343.0864</ARG_OF_PERICENTER><MEAN_ANOMALY>16.9800</MEAN_ANOMALY></meanElements><tleParameters><EPHEMERIS_TYPE>0</EPHEMERIS_TYPE><CLASSIFICATION_TYPE>U</CLASSIFICATION_TYPE><NORAD_CAT_ID>25479</NORAD_CAT_ID><ELEMENT_SET_NO>999</ELEMENT_SET_NO><REV_AT_EPOCH>42109</REV_AT_EPOCH><BSTAR>.4368E-3</BSTAR><MEAN_MOTION_DOT>.1206E-4</MEAN_MOTION_DOT><MEAN_MOTION_DDOT>0</MEAN_MOTION_DDOT></tleParameters></data></segment></body></omm>
<omm id="CCSDS_OMM_VERS" version="2.0">
<header><CREATION_DATE/><ORIGINATOR/></header><body><segment><metadata><OBJECT_NAME>ORBCOMM FM26</OBJECT_NAME><OBJECT_ID>1998-053F</OBJECT_ID><CENTER_NAME>EARTH</CENTER_NAME><REF_FRAME>TEME</REF_FRAME><TIME_SYSTEM>UTC</TIME_SYSTEM><MEAN_ELEMENT_THEORY>SGP4</MEAN_ELEMENT_THEORY></metadata><data><meanElements><EPOCH>2025-11-26T09:08:18.116736</EPOCH><MEAN_MOTION>14.37545030</MEAN_MOTION><ECCENTRICITY>.00073342</ECCENTRICITY><INCLINATION>45.0061</INCLINATION><RA_OF_ASC_NODE>215.7734</RA_OF_ASC_NODE><ARG_OF_PERICENTER>356.7233</ARG_OF_PERICENTER><MEAN_ANOMALY>3.3566</MEAN_ANOMALY></meanElements><tleParameters><EPHEMERIS_TYPE>0</EPHEMERIS_TYPE><CLASSIFICATION_TYPE>U</CLASSIFICATION_TYPE><NORAD_CAT_ID>25480</NORAD_CAT_ID><ELEMENT_SET_NO>999</ELEMENT_SET_NO><REV_AT_EPOCH>42098</REV_AT_EPOCH><BSTAR>.39380598E-3</BSTAR><MEAN_MOTION_DOT>.1049E-4</MEAN_MOTION_DOT><MEAN_MOTION_DDOT>0</MEAN_MOTION_DDOT></tleParameters></data></segment></body></omm>
<omm id="CCSDS_OMM_VERS" version="2.0">
<header><CREATION_DATE/><ORIGINATOR/></header><body><segment><metadata><OBJECT_NAME>ORBCOMM FM27</OBJECT_NAME><OBJECT_ID>1998-053G</OBJECT_ID><CENTER_NAME>EARTH</CENTER_NAME><REF_FRAME>TEME</REF_FRAME><TIME_SYSTEM>UTC</TIME_SYSTEM><MEAN_ELEMENT_THEORY>SGP4</MEAN_ELEMENT_THEORY></metadata><data><meanElements><EPOCH>2025-11-26T09:10:56.932032</EPOCH><MEAN_MOTION>14.38595384</MEAN_MOTION><ECCENTRICITY>.00018754</ECCENTRICITY><INCLINATION>45.0045</INCLINATION><RA_OF_ASC_NODE>218.2410</RA_OF_ASC_NODE><ARG_OF_PERICENTER>352.6879</ARG_OF_PERICENTER><MEAN_ANOMALY>7.3942</MEAN_ANOMALY></meanElements><tleParameters><EPHEMERIS_TYPE>0</EPHEMERIS_TYPE><CLASSIFICATION_TYPE>U</CLASSIFICATION_TYPE><NORAD_CAT_ID>25481</NORAD_CAT_ID><ELEMENT_SET_NO>999</ELEMENT_SET_NO><REV_AT_EPOCH>42102</REV_AT_EPOCH><BSTAR>.44730109E-3</BSTAR><MEAN_MOTION_DOT>.124E-4</MEAN_MOTION_DOT><MEAN_MOTION_DDOT>0</MEAN_MOTION_DDOT></tleParameters></data></segment></body></omm>
<omm id="CCSDS_OMM_VERS" version="2.0">
<header><CREATION_DATE/><ORIGINATOR/></header><body><segment><metadata><OBJECT_NAME>ORBCOMM FM28</OBJECT_NAME><OBJECT_ID>1998-053H</OBJECT_ID><CENTER_NAME>EARTH</CENTER_NAME><REF_FRAME>TEME</REF_FRAME><TIME_SYSTEM>UTC</TIME_SYSTEM><MEAN_ELEMENT_THEORY>SGP4</MEAN_ELEMENT_THEORY></metadata><data><meanElements><EPOCH>2025-11-25T20:18:21.858912</EPOCH><MEAN_MOTION>14.38723735</MEAN_MOTION><ECCENTRICITY>.00046923</ECCENTRICITY><INCLINATION>45.0035</INCLINATION><RA_OF_ASC_NODE>158.0808</RA_OF_ASC_NODE><ARG_OF_PERICENTER>38.6982</ARG_OF_PERICENTER><MEAN_ANOMALY>321.4202</MEAN_ANOMALY></meanElements><tleParameters><EPHEMERIS_TYPE>0</EPHEMERIS_TYPE><CLASSIFICATION_TYPE>U</CLASSIFICATION_TYPE><NORAD_CAT_ID>25482</NORAD_CAT_ID><ELEMENT_SET_NO>999</ELEMENT_SET_NO><REV_AT_EPOCH>42163</REV_AT_EPOCH><BSTAR>.37982998E-3</BSTAR><MEAN_MOTION_DOT>.1034E-4</MEAN_MOTION_DOT><MEAN_MOTION_DDOT>0</MEAN_MOTION_DDOT></tleParameters></data></segment></body></omm>
<omm id="CCSDS_OMM_VERS" version="2.0">
<header><CREATION_DATE/><ORIGINATOR/></header><body><segment><metadata><OBJECT_NAME>ORBCOMM FM30</OBJECT_NAME><OBJECT_ID>1999-065A</OBJECT_ID><CENTER_NAME>EARTH</CENTER_NAME><REF_FRAME>TEME</REF_FRAME><TIME_SYSTEM>UTC</TIME_SYSTEM><MEAN_ELEMENT_THEORY>SGP4</MEAN_ELEMENT_THEORY></metadata><data><meanElements><EPOCH>2025-11-26T06:47:06.039456</EPOCH><MEAN_MOTION>14.37708105</MEAN_MOTION><ECCENTRICITY>.00052112</ECCENTRICITY><INCLINATION>45.0327</INCLINATION><RA_OF_ASC_NODE>42.2518</RA_OF_ASC_NODE><ARG_OF_PERICENTER>117.7460</ARG_OF_PERICENTER><MEAN_ANOMALY>242.3918</MEAN_ANOMALY></meanElements><tleParameters><EPHEMERIS_TYPE>0</EPHEMERIS_TYPE><CLASSIFICATION_TYPE>U</CLASSIFICATION_TYPE><NORAD_CAT_ID>25980</NORAD_CAT_ID><ELEMENT_SET_NO>999</ELEMENT_SET_NO><REV_AT_EPOCH>35777</REV_AT_EPOCH><BSTAR>.42981155E-3</BSTAR><MEAN_MOTION_DOT>.1162E-4</MEAN_MOTION_DOT><MEAN_MOTION_DDOT>0</MEAN_MOTION_DDOT></tleParameters></data></segment></body></omm>
<omm id="CCSDS_OMM_VERS" version="2.0">
<header><CREATION_DATE/><ORIGINATOR/></header><body><segment><metadata><OBJECT_NAME>ORBCOMM FM31</OBJECT_NAME><OBJECT_ID>1999-065B</OBJECT_ID><CENTER_NAME>EARTH</CENTER_NAME><REF_FRAME>TEME</REF_FRAME><TIME_SYSTEM>UTC</TIME_SYSTEM><MEAN_ELEMENT_THEORY>SGP4</MEAN_ELEMENT_THEORY></metadata><data><meanElements><EPOCH>2025-11-26T06:19:26.154624</EPOCH><MEAN_MOTION>14.37635916</MEAN_MOTION><ECCENTRICITY>.00036786</ECCENTRICITY><INCLINATION>45.0241</INCLINATION><RA_OF_ASC_NODE>35.7991</RA_OF_ASC_NODE><ARG_OF_PERICENTER>159.3866</ARG_OF_PERICENTER><MEAN_ANOMALY>200.7131</MEAN_ANOMALY></meanElements><tleParameters><EPHEMERIS_TYPE>0</EPHEMERIS_TYPE><CLASSIFICATION_TYPE>U</CLASSIFICATION_TYPE><NORAD_CAT_ID>25981</NORAD_CAT_ID><ELEMENT_SET_NO>999</ELEMENT_SET_NO><REV_AT_EPOCH>35732</REV_AT_EPOCH><BSTAR>.44500079E-3</BSTAR><MEAN_MOTION_DOT>.1206E-4</MEAN_MOTION_DOT><MEAN_MOTION_DDOT>0</MEAN_MOTION_DDOT></tleParameters></data></segment></body></omm>
<omm id="CCSDS_OMM_VERS" version="2.0">
<header><CREATION_DATE/><ORIGINATOR/></header><body><segment><metadata><OBJECT_NAME>ORBCOMM FM32</OBJECT_NAME><OBJECT_ID>1999-065C</OBJECT_ID><CENTER_NAME>EARTH</CENTER_NAME><REF_FRAME>TEME</REF_FRAME><TIME_SYSTEM>UTC</TIME_SYSTEM><MEAN_ELEMENT_THEORY>SGP4</MEAN_ELEMENT_THEORY></metadata><data><meanElements><EPOCH>2025-11-26T06:40:20.296416</EPOCH><MEAN_MOTION>14.36690869</MEAN_MOTION><ECCENTRICITY>.00059711</ECCENTRICITY><INCLINATION>45.0161</INCLINATION><RA_OF_ASC_NODE>53.3921</RA_OF_ASC_NODE><ARG_OF_PERICENTER>140.7313</ARG_OF_PERICENTER><MEAN_ANOMALY>219.3969</MEAN_ANOMALY></meanElements><tleParameters><EPHEMERIS_TYPE>0</EPHEMERIS_TYPE><CLASSIFICATION_TYPE>U</CLASSIFICATION_TYPE><NORAD_CAT_ID>25982</NORAD_CAT_ID><ELEMENT_SET_NO>999</ELEMENT_SET_NO><REV_AT_EPOCH>35790</REV_AT_EPOCH><BSTAR>.48449289E-3</BSTAR><MEAN_MOTION_DOT>.1299E-4</MEAN_MOTION_DOT><MEAN_MOTION_DDOT>0</MEAN_MOTION_DDOT></tleParameters></data></segment></body></omm>

</ndm>
